ORBCOMM FM20            
1 25416U 98046D   25134.61304260  .00000833  00000+0  32508-3 0  9996
2 25416  44.9958 340.2626 0001090 109.2439 250.8527 14.37153009399430
ORBCOMM FM16            
1 25417U 98046E   25134.57911526  .00001218  00000+0  43820-3 0  9998
2 25417  44.9950 332.4329 0004938 128.0880 232.0414 14.38830750399410
ORBCOMM FM15            
1 25418U 98046F   25134.26916093  .00000985  00000+0  36588-3 0  9992
2 25418  44.9983 338.9481 0004495 125.1041 235.0229 14.38477366399363
ORBCOMM FM14            
1 25419U 98046G   25134.29539766  .00001212  00000+0  43629-3 0  9992
2 25419  44.9974 337.1574 0003352 119.3096 240.8087 14.38833244399338
ORBCOMM FM13            
1 25420U 98046H   25134.31083870  .00001051  00000+0  39404-3 0  9994
2 25420  44.9989 344.7332 0005351 105.6225 254.5213 14.37605248398360
ORBCOMM FM21            
1 25475U 98053A   25134.30960491  .00000974  00000+0  37081-3 0  9996
2 25475  45.0087  69.9163 0002196   2.1257 357.9600 14.37286219392375
ORBCOMM FM22            
1 25476U 98053B   25134.50984041  .00001158  00000+0  42331-3 0  9995
2 25476  45.0080  64.0902 0003669  28.1486 331.9560 14.38305907392783
ORBCOMM FM23            
1 25477U 98053C   25134.52305898  .00001049  00000+0  39434-3 0  9994
2 25477  45.0084  71.0754 0003008  15.1438 344.9500 14.37461318392552
